{
  "type": "FeatureCollection",
  "features": [
    {
      "type": "Feature",
      "properties": {
        "hours": 6,
        "confidence": "Medium"
      },
      "geometry": {
        "type": "Polygon",
        "coordinates": [
          [
            [
              71.29996,
              19.55397
            ],
            [
              71.30168,
              19.56233
            ],
            [
              71.29647,
              19.56032
            ],
            [
              71.29794,
              19.56788
            ],
            [
              71.30381,
              19.57773
            ],
            [
              71.30812,
              19.58218
            ],
            [
              71.31372,
              19.58924
            ],
            [
              71.31965,
              19.59577
            ],
            [
              71.32527,
              19.60259
            ],
            [
              71.33062,
              19.61297
            ],
            [
              71.33315,
              19.61695
            ],
            [
              71.33865,
              19.61995
            ],
            [
              71.34438,
              19.62301
            ],
            [
              71.3467,
              19.62199
            ],
            [
              71.35622,
              19.6282
            ],
            [
              71.35374,
              19.61912
            ],
            [
              71.35585,
              19.61637
            ],
            [
              71.35607,
              19.61322
            ],
            [
              71.3523,
              19.60414
            ],
            [
              71.34682,
              19.59832
            ],
            [
              71.34133,
              19.59268
            ],
            [
              71.33513,
              19.58536
            ],
            [
              71.32918,
              19.57641
            ],
            [
              71.32434,
              19.56745
            ],
            [
              71.32115,
              19.56424
            ],
            [
              71.31432,
              19.55693
            ],
            [
              71.31248,
              19.55909
            ],
            [
              71.30549,
              19.55477
            ],
            [
              71.29996,
              19.55397
            ]
          ]
        ]
      }
    },
    {
      "type": "Feature",
      "properties": {
        "hours": 12,
        "confidence": "Medium"
      },
      "geometry": {
        "type": "Polygon",
        "coordinates": [
          [
            [
              71.27561,
              19.52184
            ],
            [
              71.27,
              19.52127
            ],
            [
              71.26859,
              19.52652
            ],
            [
              71.26943,
              19.53315
            ],
            [
              71.27292,
              19.5415
            ],
            [
              71.2787,
              19.55035
            ],
            [
              71.2881,
              19.55775
            ],
            [
              71.296,
              19.56704
            ],
            [
              71.30361,
              19.57688
            ],
            [
              71.30629,
              19.58575
            ],
            [
              71.31353,
              19.59069
            ],
            [
              71.3197,
              19.60084
            ],
            [
              71.32629,
              19.60385
            ],
            [
              71.33563,
              19.60769
            ],
            [
              71.33978,
              19.60652
            ],
            [
              71.34259,
              19.60257
            ],
            [
              71.33825,
              19.59257
            ],
            [
              71.34144,
              19.59238
            ],
            [
              71.3393,
              19.58254
            ],
            [
              71.33229,
              19.57172
            ],
            [
              71.32445,
              19.56383
            ],
            [
              71.31492,
              19.55431
            ],
            [
              71.30962,
              19.54589
            ],
            [
              71.30318,
              19.53529
            ],
            [
              71.29535,
              19.52626
            ],
            [
              71.28851,
              19.51821
            ],
            [
              71.28627,
              19.52349
            ],
            [
              71.28273,
              19.52327
            ],
            [
              71.27561,
              19.52184
            ]
          ]
        ]
      }
    },
    {
      "type": "Feature",
      "properties": {
        "hours": 24,
        "confidence": "Medium"
      },
      "geometry": {
        "type": "Polygon",
        "coordinates": [
          [
            [
              71.21671,
              19.44411
            ],
            [
              71.21933,
              19.45557
            ],
            [
              71.20649,
              19.45173
            ],
            [
              71.21768,
              19.46918
            ],
            [
              71.22073,
              19.48291
            ],
            [
              71.22854,
              19.48911
            ],
            [
              71.23628,
              19.50201
            ],
            [
              71.24846,
              19.50973
            ],
            [
              71.25518,
              19.52538
            ],
            [
              71.26775,
              19.54005
            ],
            [
              71.27707,
              19.54846
            ],
            [
              71.28212,
              19.55127
            ],
            [
              71.28979,
              19.55813
            ],
            [
              71.30529,
              19.56895
            ],
            [
              71.3008,
              19.55514
            ],
            [
              71.31476,
              19.56256
            ],
            [
              71.30252,
              19.53787
            ],
            [
              71.30896,
              19.5366
            ],
            [
              71.29918,
              19.52563
            ],
            [
              71.28919,
              19.51469
            ],
            [
              71.28484,
              19.50673
            ],
            [
              71.27313,
              19.49313
            ],
            [
              71.26185,
              19.4811
            ],
            [
              71.25308,
              19.46562
            ],
            [
              71.25234,
              19.46192
            ],
            [
              71.24634,
              19.45598
            ],
            [
              71.23447,
              19.4514
            ],
            [
              71.2173,
              19.43589
            ],
            [
              71.21671,
              19.44411
            ]
          ]
        ]
      }
    },
    {
      "type": "Feature",
      "properties": {
        "hours": 36,
        "confidence": "Low"
      },
      "geometry": {
        "type": "Polygon",
        "coordinates": [
          [
            [
              71.1711,
              19.38391
            ],
            [
              71.16875,
              19.39509
            ],
            [
              71.16615,
              19.39615
            ],
            [
              71.16557,
              19.40275
            ],
            [
              71.16561,
              19.40425
            ],
            [
              71.17651,
              19.43343
            ],
            [
              71.18906,
              19.43965
            ],
            [
              71.20361,
              19.45061
            ],
            [
              71.21108,
              19.4722
            ],
            [
              71.22319,
              19.48942
            ],
            [
              71.2354,
              19.50497
            ],
            [
              71.23386,
              19.49795
            ],
            [
              71.26545,
              19.52633
            ],
            [
              71.26788,
              19.52608
            ],
            [
              71.26975,
              19.5142
            ],
            [
              71.28449,
              19.5241
            ],
            [
              71.27433,
              19.49842
            ],
            [
              71.27681,
              19.49258
            ],
            [
              71.26994,
              19.48601
            ],
            [
              71.25365,
              19.45385
            ],
            [
              71.24059,
              19.44449
            ],
            [
              71.23114,
              19.43208
            ],
            [
              71.22642,
              19.41347
            ],
            [
              71.21009,
              19.39913
            ],
            [
              71.19483,
              19.38638
            ],
            [
              71.18772,
              19.36942
            ],
            [
              71.17662,
              19.36528
            ],
            [
              71.16283,
              19.36251
            ],
            [
              71.1711,
              19.38391
            ]
          ]
        ]
      }
    },
    {
      "type": "Feature",
      "properties": {
        "hours": 48,
        "confidence": "Low"
      },
      "geometry": {
        "type": "Polygon",
        "coordinates": [
          [
            [
              71.10783,
              19.30039
            ],
            [
              71.10641,
              19.31277
            ],
            [
              71.10469,
              19.31734
            ],
            [
              71.10168,
              19.33336
            ],
            [
              71.11602,
              19.34572
            ],
            [
              71.11892,
              19.3485
            ],
            [
              71.13736,
              19.37162
            ],
            [
              71.14975,
              19.39756
            ],
            [
              71.16583,
              19.42067
            ],
            [
              71.17693,
              19.43807
            ],
            [
              71.1901,
              19.44283
            ],
            [
              71.19634,
              19.45845
            ],
            [
              71.22066,
              19.48306
            ],
            [
              71.23255,
              19.48386
            ],
            [
              71.23919,
              19.47394
            ],
            [
              71.24277,
              19.46646
            ],
            [
              71.24596,
              19.45968
            ],
            [
              71.23231,
              19.41978
            ],
            [
              71.23297,
              19.41576
            ],
            [
              71.22647,
              19.40431
            ],
            [
              71.21507,
              19.38808
            ],
            [
              71.19031,
              19.37025
            ],
            [
              71.17042,
              19.35252
            ],
            [
              71.16235,
              19.31904
            ],
            [
              71.15349,
              19.3255
            ],
            [
              71.13082,
              19.29746
            ],
            [
              71.12772,
              19.307
            ],
            [
              71.10164,
              19.27696
            ],
            [
              71.10783,
              19.30039
            ]
          ]
        ]
      }
    }
  ]
}