{
  "type": "FeatureCollection",
  "features": [
    {
      "type": "Feature",
      "properties": {
        "vessel_id": "V001",
        "vessel_name": "MV Ocean Crest"
      },
      "geometry": {
        "type": "LineString",
        "coordinates": [
          [
            71.44507,
            19.70882
          ],
          [
            71.41361,
            19.66609
          ],
          [
            71.38382,
            19.62232
          ],
          [
            71.35092,
            19.58058
          ],
          [
            71.32187,
            19.53638
          ],
          [
            71.31381,
            19.52648
          ],
          [
            71.30655,
            19.51604
          ],
          [
            71.29898,
            19.5058
          ],
          [
            71.26794,
            19.46283
          ],
          [
            71.23672,
            19.41998
          ],
          [
            71.20332,
            19.37862
          ]
        ]
      }
    },
    {
      "type": "Feature",
      "properties": {
        "vessel_id": "V002",
        "vessel_name": "MT Blue Horizon"
      },
      "geometry": {
        "type": "LineString",
        "coordinates": [
          [
            71.45069,
            19.74256
          ],
          [
            71.39818,
            19.72063
          ],
          [
            71.34737,
            19.69542
          ],
          [
            71.29669,
            19.66999
          ],
          [
            71.24563,
            19.64526
          ],
          [
            71.19299,
            19.62367
          ],
          [
            71.14018,
            19.60247
          ],
          [
            71.08872,
            19.57852
          ],
          [
            71.03596,
            19.55724
          ],
          [
            70.98378,
            19.53474
          ],
          [
            70.93176,
            19.51194
          ]
        ]
      }
    },
    {
      "type": "Feature",
      "properties": {
        "vessel_id": "V003",
        "vessel_name": "MV Sea Falcon"
      },
      "geometry": {
        "type": "LineString",
        "coordinates": [
          [
            71.44388,
            19.61016
          ],
          [
            71.46831,
            19.55442
          ],
          [
            71.49792,
            19.50096
          ],
          [
            71.52499,
            19.44632
          ],
          [
            71.55324,
            19.39221
          ],
          [
            71.57827,
            19.33672
          ],
          [
            71.60486,
            19.28188
          ],
          [
            71.62997,
            19.22642
          ],
          [
            71.66006,
            19.17323
          ],
          [
            71.68736,
            19.11871
          ],
          [
            71.713,
            19.06348
          ]
        ]
      }
    },
    {
      "type": "Feature",
      "properties": {
        "vessel_id": "V004",
        "vessel_name": "MT Eastern Star"
      },
      "geometry": {
        "type": "LineString",
        "coordinates": [
          [
            71.33411,
            19.7191
          ],
          [
            71.29379,
            19.74464
          ],
          [
            71.25312,
            19.7697
          ],
          [
            71.21217,
            19.79437
          ],
          [
            71.17166,
            19.81967
          ],
          [
            71.13141,
            19.84535
          ],
          [
            71.08998,
            19.86931
          ],
          [
            71.05139,
            19.89716
          ],
          [
            71.01055,
            19.92203
          ],
          [
            70.97048,
            19.94799
          ],
          [
            70.93169,
            19.97562
          ]
        ]
      }
    },
    {
      "type": "Feature",
      "properties": {
        "vessel_id": "V005",
        "vessel_name": "MV Coastal Pioneer"
      },
      "geometry": {
        "type": "LineString",
        "coordinates": [
          [
            71.37963,
            19.63511
          ],
          [
            71.36653,
            19.59757
          ],
          [
            71.35359,
            19.55999
          ],
          [
            71.3448,
            19.52136
          ],
          [
            71.33155,
            19.48387
          ],
          [
            71.32293,
            19.4452
          ],
          [
            71.31891,
            19.42687
          ],
          [
            71.31248,
            19.40916
          ],
          [
            71.29924,
            19.37167
          ],
          [
            71.2876,
            19.33371
          ],
          [
            71.27598,
            19.29575
          ]
        ]
      }
    },
    {
      "type": "Feature",
      "properties": {
        "vessel_id": "V006",
        "vessel_name": "MV Neptune"
      },
      "geometry": {
        "type": "LineString",
        "coordinates": [
          [
            71.27642,
            19.66379
          ],
          [
            71.2701,
            19.73007
          ],
          [
            71.26081,
            19.79604
          ],
          [
            71.25059,
            19.86189
          ],
          [
            71.24335,
            19.92809
          ],
          [
            71.2408,
            19.99459
          ],
          [
            71.23644,
            20.06101
          ],
          [
            71.23419,
            20.12752
          ],
          [
            71.23281,
            20.19405
          ],
          [
            71.22322,
            20.25999
          ],
          [
            71.22109,
            20.32651
          ]
        ]
      }
    }
  ]
}