{
  "type": "FeatureCollection",
  "features": [
    {
      "type": "Feature",
      "properties": {
        "id": "source-region",
        "name": "Probable Source Region",
        "confidence": 0.78,
        "confidence_label": "High",
        "release_window_start": "2026-08-15T10:20:00Z",
        "release_window_end": "2026-08-15T11:10:00Z"
      },
      "geometry": {
        "type": "Polygon",
        "coordinates": [
          [
            [
              71.38581,
              19.66725
            ],
            [
              71.38288,
              19.67009
            ],
            [
              71.38132,
              19.67368
            ],
            [
              71.38144,
              19.67763
            ],
            [
              71.38332,
              19.68162
            ],
            [
              71.38676,
              19.68543
            ],
            [
              71.3913,
              19.68895
            ],
            [
              71.39336,
              19.69413
            ],
            [
              71.39608,
              19.69844
            ],
            [
              71.39948,
              19.70141
            ],
            [
              71.4034,
              19.7028
            ],
            [
              71.40752,
              19.70257
            ],
            [
              71.41131,
              19.70089
            ],
            [
              71.41424,
              19.69805
            ],
            [
              71.4158,
              19.69446
            ],
            [
              71.41568,
              19.69051
            ],
            [
              71.4138,
              19.68652
            ],
            [
              71.41036,
              19.68271
            ],
            [
              71.40582,
              19.67919
            ],
            [
              71.40376,
              19.67401
            ],
            [
              71.40104,
              19.6697
            ],
            [
              71.39764,
              19.66673
            ],
            [
              71.39372,
              19.66534
            ],
            [
              71.3896,
              19.66557
            ],
            [
              71.38581,
              19.66725
            ]
          ]
        ]
      }
    }
  ]
}