{
  "type": "FeatureCollection",
  "features": [
    {
      "type": "Feature",
      "properties": {
        "id": "spill-observed",
        "name": "Observed Slick",
        "oil_probability": 0.94,
        "area_km2": 12.8,
        "length_km": 7.4,
        "width_km": 2.1,
        "confidence": "High",
        "detected_at": "2026-08-15T14:00:00Z"
      },
      "geometry": {
        "type": "Polygon",
        "coordinates": [
          [
            [
              71.32881,
              19.59204
            ],
            [
              71.32942,
              19.59618
            ],
            [
              71.32696,
              19.59662
            ],
            [
              71.32833,
              19.59964
            ],
            [
              71.33277,
              19.60661
            ],
            [
              71.33622,
              19.61274
            ],
            [
              71.34117,
              19.61788
            ],
            [
              71.34547,
              19.62305
            ],
            [
              71.34898,
              19.62917
            ],
            [
              71.35474,
              19.63585
            ],
            [
              71.35818,
              19.64183
            ],
            [
              71.36122,
              19.64317
            ],
            [
              71.36725,
              19.64923
            ],
            [
              71.36642,
              19.64488
            ],
            [
              71.37221,
              19.64931
            ],
            [
              71.37335,
              19.64705
            ],
            [
              71.37239,
              19.64205
            ],
            [
              71.3702,
              19.63741
            ],
            [
              71.36923,
              19.63454
            ],
            [
              71.36524,
              19.62901
            ],
            [
              71.35939,
              19.62321
            ],
            [
              71.35426,
              19.61714
            ],
            [
              71.35073,
              19.61134
            ],
            [
              71.34714,
              19.60591
            ],
            [
              71.34192,
              19.59915
            ],
            [
              71.33873,
              19.59664
            ],
            [
              71.33629,
              19.59448
            ],
            [
              71.33114,
              19.59145
            ],
            [
              71.32881,
              19.59204
            ]
          ]
        ]
      }
    }
  ]
}